[{"OBJECT_NAME":"STARLINK-31074","OBJECT_ID":"2023-200N","EPOCH":"2026-03-09T22:00:01.999584","MEAN_MOTION":15.26757142,"ECCENTRICITY":0.0001232,"INCLINATION":43.0003,"RA_OF_ASC_NODE":167.2687,"ARG_OF_PERICENTER":274.579,"MEAN_ANOMALY":281.1582,"EPHEMERIS_TYPE":0,"CLASSIFICATION_TYPE":"U","NORAD_CAT_ID":58601,"ELEMENT_SET_NO":999,"REV_AT_EPOCH":573,"BSTAR":-0.00056593976,"MEAN_MOTION_DOT":-0.00015416,"MEAN_MOTION_DDOT":0},{"OBJECT_NAME":"BANDWAGON-4 OBJECT P","OBJECT_ID":"2025-248P","EPOCH":"2026-03-08T23:32:23.805312","MEAN_MOTION":15.24098352,"ECCENTRICITY":0.00120788,"INCLINATION":45.4037,"RA_OF_ASC_NODE":295.4322,"ARG_OF_PERICENTER":209.3167,"MEAN_ANOMALY":150.7044,"EPHEMERIS_TYPE":0,"CLASSIFICATION_TYPE":"U","NORAD_CAT_ID":66306,"ELEMENT_SET_NO":999,"REV_AT_EPOCH":1929,"BSTAR":0.00092291021,"MEAN_MOTION_DOT":0.00022647,"MEAN_MOTION_DDOT":0}]
